202002102100 AAXX 10214 78762 32970 00716 10289 20147 39098 40071 57019 333 30/// 59018
202002101800 AAXX 10184 78762 32970 00715 10290 20127 39117 40093 58012 333 10307 20194 30/// 58009
202002101500 AAXX 10154 78762 32970 01114 10227 20104 39129 40106 52012 60052 76658 81536 333 30/// 58027
202002101200 AAXX 10124 78762 32970 01013 10209 20111 39117 40100 53004 333 10287 20194 30/// 59032
202002100900 AAXX 10094 78762 32970 01116 10205 20083 39113 40087 57020 333 30/// 59021
202002100600 AAXX 10064 78762 32970 01014 10199 20099 39133 40112 57003 333 10287 20196 30/// 59015
202002100300 AAXX 10034 78762 32970 01019 10213 20103 39136 40120 52013 333 30/// 59013
202002100000 AAXX 10004 78762 32670 11017 10223 20124 39123 40111 57004 81500 333 10287 20193 30/// 56300 59007 81645
202002092100 AAXX 09214 78762 02770 10909 10271 20114 39119 40090 57011 81500 222 01035 10521 20503 30604 333 30/// 56200 58001 81660